{
  "type": "FeatureCollection",
  "features": [
    {
      "type": "Feature",
      "properties": {
        "norad_id": 64902,
        "name": "CO3D 2",
        "group": "resource",
        "lat": -5.722319865093227,
        "lon": 67.19255588428362,
        "alt_km": 489.89896018514446,
        "timestamp": "2025-12-16T03:53:26.716988+00:00",
        "meta_object_name": "CO3D 2",
        "meta_object_id": "2025-156D",
        "meta_epoch": "2025-12-12T21:01:26.694624",
        "meta_mean_motion": 15.22031437,
        "meta_eccentricity": 0.00203863,
        "meta_inclination": 97.4215,
        "meta_ra_of_asc_node": 63.2016,
        "meta_arg_of_pericenter": 351.3096,
        "meta_mean_anomaly": 8.7784,
        "meta_ephemeris_type": 0,
        "meta_classification_type": "U",
        "meta_norad_cat_id": 64902,
        "meta_element_set_no": 999,
        "meta_rev_at_epoch": 2122,
        "meta_bstar": 0.00010503321,
        "meta_mean_motion_dot": 2.342e-05,
        "meta_mean_motion_ddot": 0,
        "tle_line1": "1 64902U 25156D   25346.87600341  .00002342  00000+0  10503-3 0  9991",
        "tle_line2": "2 64902  97.4215  63.2016 0020386 351.3096   8.7784 15.22031437 21224"
      },
      "geometry": {
        "type": "Point",
        "coordinates": [
          67.19255588428362,
          -5.722319865093227
        ]
      }
    },
    {
      "type": "Feature",
      "properties": {
        "norad_id": 64903,
        "name": "CO3D 1",
        "group": "resource",
        "lat": -27.005083011810573,
        "lon": 70.19481117191827,
        "alt_km": 511.1013552562463,
        "timestamp": "2025-12-16T03:53:26.716998+00:00",
        "meta_object_name": "CO3D 1",
        "meta_object_id": "2025-156E",
        "meta_epoch": "2025-12-15T15:22:20.851104",
        "meta_mean_motion": 15.20205605,
        "meta_eccentricity": 8.54e-05,
        "meta_inclination": 97.4345,
        "meta_ra_of_asc_node": 65.8649,
        "meta_arg_of_pericenter": 71.0732,
        "meta_mean_anomaly": 289.0596,
        "meta_ephemeris_type": 0,
        "meta_classification_type": "U",
        "meta_norad_cat_id": 64903,
        "meta_element_set_no": 999,
        "meta_rev_at_epoch": 2164,
        "meta_bstar": 0.00019508,
        "meta_mean_motion_dot": 4.158e-05,
        "meta_mean_motion_ddot": 0,
        "tle_line1": "1 64903U 25156E   25349.64051911  .00004158  00000+0  19508-3 0  9994",
        "tle_line2": "2 64903  97.4345  65.8649 0000854  71.0732 289.0596 15.20205605 21649"
      },
      "geometry": {
        "type": "Point",
        "coordinates": [
          70.19481117191827,
          -27.005083011810573
        ]
      }
    },
    {
      "type": "Feature",
      "properties": {
        "norad_id": 66514,
        "name": "SENTINEL-6B",
        "group": "resource",
        "lat": 37.47967869208884,
        "lon": 175.25811662884405,
        "alt_km": 1335.9875477541218,
        "timestamp": "2025-12-16T03:53:26.717008+00:00",
        "meta_object_name": "SENTINEL-6B",
        "meta_object_id": "2025-264A",
        "meta_epoch": "2025-12-12T06:01:21.430272",
        "meta_mean_motion": 12.81479576,
        "meta_eccentricity": 0.0007847,
        "meta_inclination": 66.0385,
        "meta_ra_of_asc_node": 163.4531,
        "meta_arg_of_pericenter": 270.1745,
        "meta_mean_anomaly": 89.8371,
        "meta_ephemeris_type": 0,
        "meta_classification_type": "U",
        "meta_norad_cat_id": 66514,
        "meta_element_set_no": 999,
        "meta_rev_at_epoch": 322,
        "meta_bstar": 0.00018864317,
        "meta_mean_motion_dot": -1.7e-07,
        "meta_mean_motion_ddot": 0,
        "tle_line1": "1 66514U 25264A   25346.25094248 -.00000017  00000+0  18864-3 0  9993",
        "tle_line2": "2 66514  66.0385 163.4531 0007847 270.1745  89.8371 12.81479576  3220"
      },
      "geometry": {
        "type": "Point",
        "coordinates": [
          175.25811662884405,
          37.47967869208884
        ]
      }
    }
  ]
}